EVENT_NAME: 202302060117
EVENT_ID: 0
EVENT_DATE_YYYYMMDD: 20230206
EVENT_TIME_HHMMSS: 011732
EVENT_LATITUDE_DEGREE: 37.288
EVENT_LONGITUDE_DEGREE: 37.043
EVENT_DEPTH_KM: 8.6
HYPOCENTER_REFERENCE: AFAD
MAGNITUDE_W: 7.7
MAGNITUDE_W_REFERENCE: AFAD
MAGNITUDE_L: 
MAGNITUDE_L_REFERENCE: 
FOCAL_MECHANISM: 
NETWORK: TK
STATION_CODE: 4614
STATION_NAME: 
STATION_LATITUDE_DEGREE: 37.48513
STATION_LONGITUDE_DEGREE: 37.29775
STATION_ELEVATION_M: 771.0
LOCATION: Pazarck_Kahramanmaras_Turkiye
SENSOR_DEPTH_M: 
VS30_M/S: 541
SITE_CLASSIFICATION_EC8: B
MORPHOLOGIC_CLASSIFICATION: 
EPICENTRAL_DISTANCE_KM: 31.42
EARTHQUAKE_BACKAZIMUTH_DEGREE: 
DATE_TIME_FIRST_SAMPLE_YYYYMMDD_HHMMSS: 20230206_011717
DATE_TIME_FIRST_SAMPLE_PRECISION: millisecond
SAMPLING_INTERVAL_S: 0.01
NDATA: 12001
DURATION_S: 
STREAM: HNN
UNITS: cm/s^2
INSTRUMENT: sensor = GMSPLUS/GEOSIG | digitizer = 
INSTRUMENT_ANALOG/DIGITAL: 
INSTRUMENTAL_FREQUENCY_HZ: 
INSTRUMENTAL_DAMPING: 
FULL_SCALE_G: 
N_BIT_DIGITAL_CONVERTER: 
PGA_CM/S^2: 2165.584
TIME_PGA_S: 
BASELINE_CORRECTION: -
FILTER_TYPE: BUTTERWORTH
FILTER_ORDER: 
LOW_CUT_FREQUENCY_HZ: 
HIGH_CUT_FREQUENCY_HZ: 
LATE/NORMAL_TRIGGERED: 
DATABASE_VERSION: 
HEADER_FORMAT: DYNA 1.2
DATA_TYPE: Acceleration
PROCESSING: Unprocessed
DATA_TIMESTAMP_YYYYMMDD_HHMMSS: 
DATA_LICENSE: U (unknown license)
DATA_CITATION: Turkish Accelerometric Archive v 1.0 - Disaster And Emergency Management Presidency, Earthquake Department
DATA_CREATOR: AFAD
ORIGINAL_DATA_MEDIATOR_CITATION: : AFAD - Disaster And Emergency Management Presidency
ORIGINAL_DATA_MEDIATOR: AFAD PROCESS SERVICE
ORIGINAL_DATA_CREATOR_CITATION: AFAD PROCESS SERVICE
ORIGINAL_DATA_CREATOR: network: TK
USER1: GuestUser
USER2: 
USER3: 
USER4: 
USER5: 
[...]
0.474591
0.484743
0.485543
0.481147
0.469478
0.462224
0.457829
0.460707
0.479690
0.489582
0.484407
0.482869
0.476395
0.464466
0.465266
0.466325
0.467904
0.482472
0.484051
0.484071
0.481494
0.470604
0.471144
0.466229
0.477159
0.483934
0.479019
0.486053
0.475423
0.474404
0.480919
0.477043
0.481479
0.480460
0.482039
0.477384
0.474807
0.490933
0.490174
0.477466
0.477226
0.477506
0.474929
0.484042
0.492634
0.490057
0.484622
0.489319
0.485962
0.477930
0.485224
0.482646
0.479809
0.485025
0.488163
0.493378
0.492360
0.487185
0.486686
0.484368
0.479193
0.481811
0.487547
0.492762
0.493562
0.496700
0.496201
0.485571
0.477798
0.482494
0.498101
0.498900
0.496583
0.498941
0.493766
0.488591
0.483676
0.486814
0.489692
0.493868
0.502201
0.499884
0.495488
0.491612
0.493451
0.494251
0.492712
0.497928
0.499248
0.495112
0.488118
0.492035
0.496472
0.493375
0.497292
0.496533
0.502009
0.502549
0.490619
0.496615
0.497934
0.498474
0.507586
0.508386
0.506848
0.500634
0.497017
0.496518
0.498876
0.499157
0.502554
0.508289
0.503894
0.506512
0.504194
0.500578
0.506054
0.503476
0.501419
0.504556
0.506135
0.506156
0.512670
0.513470
0.505178
0.513251
0.509115
0.490432
0.498246
0.509696
0.516730
0.518569
0.517550
0.515493
0.497589
0.494492
0.506981
0.514275
0.521569
0.516394
0.501348
0.502408
0.504506
0.503747
0.513639
0.518595
0.515238
0.507985
0.509564
0.508546
0.504410
0.518198
0.527310
0.521876
0.514622
0.511785
0.504272
0.500396
0.515224
0.524076
0.522278
0.524377
0.515046
0.502077
0.508852
0.515886
0.517465
0.524240
0.527117
0.518565
0.512611
0.514450
0.513431
0.518128
0.518148
0.523883
0.531957
0.521326
0.522646
0.517730
0.515153
0.524525
0.525845
0.527424
0.518612
0.519152
0.523069
0.518933
0.526227
0.528585
0.530684
0.533562
0.520853
0.518016
0.524531
0.518057
0.520675
0.530567
0.529548
0.530868
0.532966
0.527012
0.519499
0.522117
0.530710
0.535666
0.531010
0.523238
0.526895
0.526396
0.527975
0.543062
0.542823
0.533231
0.530394
0.524180
0.519525
0.524481
0.539568
0.553356
0.548181
0.536512
0.524323
0.513433
0.514493
0.530359
0.548564
0.554818
0.556657
0.538754
0.514355
0.521649
0.532061
0.534419
0.539635
0.544071
0.548248
0.540475
0.536859
0.537919
0.531445
0.535881
0.538759
0.534104
0.536982
0.547133
0.551570
0.545355
0.541739
0.543838
0.541520
0.533228
0.534287
0.542101
0.542381
0.536946
0.535408
0.540364
0.545580
0.549757
0.559129
0.549278
0.532673
0.536330
0.532194
0.538449
0.548341
0.552258
0.561630
0.551779
0.541149
0.543507
0.548983
0.543029
0.540451
0.543849
0.541531
0.557917
0.563653
0.556400
0.555641
0.543452
0.536458
0.538557
0.545331
0.560159
0.556542
0.547990
0.555804
0.556084
0.545454
0.542357
0.545755
0.546554
0.553069
0.566338
0.565319
0.559365
0.560684
0.555509
0.552672
0.551913
0.549595
0.550915
0.557170
0.562645
0.555912
0.562946
0.566083
0.550518
0.547940
0.550299
0.558632
0.563068
0.561790
0.562330
0.558973
0.564449
0.562131
0.557216
0.561653
0.559335
0.550523
0.550803
0.563812
0.571106
0.572945
0.569848
0.561296
0.553264
0.551726
0.557721
0.563196
0.570750
0.574407
0.570791
0.560421
0.557064
0.564358
0.573211
0.573751
0.568835
0.566518
0.560304
0.565520
0.568657
0.570236
0.578829
0.572875
0.564323
0.559927
0.566442
0.571138
0.574276
0.585466
0.574057
0.562128
0.564226
0.565546
0.572320
0.584290
0.585349
0.574719
0.572661
0.563590
0.557636
0.577658
0.594304
0.589389
0.579798
0.570207
0.553602
0.559597
0.579620
0.588472
0.596546
0.593449
0.579961
0.564655
0.561298
0.574567
0.580562
0.585258
0.586578
0.571531
0.567396
0.582742
0.592894
0.588758
0.580466
0.571914
0.562582
0.565980
0.580288
0.592777
0.604227
0.595156
0.574395
0.568180
0.564045
0.573417
0.589803
0.595019
0.595558
0.590643
0.581052
0.570162
0.572001
0.582932
0.597240
0.595961
0.588968
0.588988
0.572383
0.568507
0.579698
0.592447
0.605456
0.604437
0.600041
0.589411
0.578262
0.578022
0.575185
0.580920
0.598865
0.608757
0.608258
0.594510
0.583880
0.578705
0.579505
0.585500
0.587858
0.603205
0.605563
0.599869
0.594174
0.583025
0.585643
0.589040
0.600491
0.605706
0.602869
0.601331
0.589922
0.586305
0.592041
0.598555
0.599875
0.599635
0.598876
0.596559
0.596319
0.600236
0.607271
0.603135
0.599518
0.592005
0.582414
0.592825
0.599600
0.612089
0.617565
0.602259
0.602539
0.592688
0.582318
0.592729
0.606258
0.615110
0.616689
0.612553
0.600364
0.595969
0.598067
0.605361
0.606940
0.602025
0.601526
0.593494
0.603125
0.621070
0.622130
0.621630
0.608403
0.590239
0.588441
0.597553
0.614719
0.628247
0.622553
0.610364
0.607527
0.599754
0.598476
0.609666
0.615661
0.621916
0.623235
0.614943
0.608210
0.610568
0.602535
0.599439
0.614786
0.618183
0.628854
0.624978
0.605775
0.606055
0.601140
0.608954
0.621963
0.628477
0.627459
0.610854
0.606458
0.608297
0.609097
0.615611
0.629919
0.636434
0.626323
0.613355
0.601166
0.597290
0.610819
0.637595
0.646967
0.639195
0.630383
0.614038
0.605226
0.616157
0.635140
0.647110
0.651287
0.639098
0.618857
0.620955
0.625132
0.640998
0.655826
0.645715
0.643657
0.633806
0.634606
0.638783
0.642700
0.664021
0.656249
0.657308
0.661485
0.657609
0.679710
0.687783
0.694817
0.695877
0.685506
0.697476
0.710225
0.726611
0.761701
0.785620
0.785381
0.786700
0.784123
0.774012
0.783644
0.802628
0.828885
0.848128
0.842174
0.835700
0.832344
0.832624
0.834203
0.825131
0.813722
0.802053
0.791942
0.803392
0.831468
0.854608
0.858525
0.840881
0.817262
0.801956
0.827174
0.868758
0.898652
0.943353
0.998964
1.042107
1.044205
1.039290
1.075938
1.132069
1.135726
1.124576
1.181487
1.243852
1.279980
1.326240
1.333534
1.290692
1.293310
1.311515
1.261399
1.167383
1.168183
1.328222
1.384612
1.203832
1.087476
1.126981
1.050889
0.804127
0.640232
0.661814
0.605983
0.515604
0.654342
0.707615
0.335384
-0.193489
-0.502595
-0.500237
-0.288503
-0.151584
-0.244302
-0.461709
-0.497797
-0.221380
-0.150702
-0.382657
-0.640329
-0.983985
-0.750691
0.337509
1.073459
0.791629
0.276784
0.446174
1.078736
1.455684
1.485578
1.030480
0.260021
0.449674
1.348241
1.327999
0.584037
0.244537
0.565374
0.733206
0.181474
-0.449489
-0.401151
0.031128
0.443404
1.014660
0.955972
0.008869
-0.139439
0.859139
1.246218
1.150643
0.958173
0.308767
0.947563
2.740001
4.072125
4.052923
2.086999
0.162379
0.152268
1.512707
2.968742
3.428037
2.868252
2.311064
1.966888
1.506076
2.108504
4.076027
3.674962
-0.049349
-1.513136
0.203968
1.508037
2.380887
2.326615
0.462781
-1.178429
-1.244131
-0.620141
0.156593
1.138807
0.794371
-1.292865
-1.731338
-0.084891
0.890308
1.663406
2.114908
0.646185
-1.727319
-1.953039
1.474655
3.812091
1.647183
-0.576173
-2.111397
-3.973412
-2.368529
2.109677
5.902608
6.365800
2.445881
-1.237386
-2.042395
-1.887811
-1.175499
-1.157295
-0.984787
0.361365
-0.099188
0.075658
2.839378
3.013705
-0.810098
-4.693389
-4.960673
-1.699232
1.353093
2.751979
3.935254
4.179719
2.880107
1.573741
1.287494
2.015132
1.733821
0.175217
0.031585
0.492438
0.520514
2.006942
3.200608
2.149596
-0.152990
-2.696643
-2.571673
-0.863401
0.612116
3.696653
5.998761
6.316221
4.275743
0.200482
-1.358121
-0.609702
1.670845
6.711195
9.441664
4.803220
-1.650760
-1.731009
3.220499
6.032536
3.874902
-0.779128
-4.311728
-3.323800
-2.008301
-1.921518
3.348989
7.119580
3.504632
-0.571668
-4.561984
-7.119405
-4.960951
-5.277591
-6.197678
0.405192
7.516434
7.782199
2.553557
-3.445306
-7.563689
-9.276336
-2.674765
6.675439
3.122057
-5.981844
-3.252933
4.663338
4.222008
1.011783
-0.129889
-2.743940
-1.842256
3.799203
7.308725
8.476414
7.260188
0.309786
-7.878683
-8.321572
-2.470737
1.574171
2.288821
0.603709
-1.847206
-0.720301
5.065591
5.927530
-3.714096
-8.989238
-3.467533
4.442503
10.859897
8.534191
-1.890903
-4.430660
5.854978
19.010822
23.751656
13.240578
-1.208883
-1.956742
8.080555
19.243179
24.867233
17.039846
0.515337
-7.404789
2.638743
17.894573
20.120567
6.806564
-8.671588
-10.416967
-3.192206
4.171533
8.099025
-2.298793
-10.232687
1.211268
6.199404
0.720862
2.302626
1.637893
5.781255
17.536935
9.049470
-8.271495
-8.633075
4.952429
21.824551
34.742965
35.857141
20.954381
4.514818
-0.437429
1.523080
1.642335
14.669333
27.785172
7.219672
-11.107645
1.502681
10.740664
-2.721408
-12.289000
-7.636488
-5.104483
-0.836431
4.540322
0.879395
-6.374939
-7.179948
-7.821561
-17.955452
-26.694895
-26.769948
-15.145972
6.616592
18.617496
25.193350
29.633110
26.932555
31.208919
27.018840
18.903366
32.338983
42.179894
24.946731
-1.931455
-16.297010
-19.655564
-13.472223
-0.561084
0.899627
-5.381606
-0.433735
15.555168
36.990680
52.859049
45.656669
26.500425
13.202267
0.076598
-4.171671
12.573943
26.418439
10.718702
-3.223686
14.482560
30.872548
40.463559
34.757458
5.053228
-7.162465
8.998924
35.620498
46.278907
40.326284
20.180313
-9.740307
-31.086158
-25.551724
15.234622
38.222004
20.365652
6.355723
14.992078
6.961289
32.835503
64.535592
32.944907
28.525190
23.094706
17.336650
43.345685
36.116549
-17.907927
-12.215034
30.780921
17.319368
25.987415
24.398678
-4.266210
-42.672497
-12.592337
10.050849
-28.838351
61.501579
4.084499
-124.360104
-35.946893
-18.882280
-61.780781
-4.797996
23.603786
-44.684955
-88.753202
-64.063283
33.339810
69.706939
-10.967146
-16.732994
-13.019033
-27.371859
-24.529428
-37.281808
18.901143
150.808010
120.797250
-29.861378
-34.905843
-21.877807
10.840324
43.600797
24.274662
59.185516
78.016309
99.625868
106.258352
81.802527
37.763894
-21.406898
-40.475600
45.997644
57.575641
57.800623
206.991069
6.853410
-108.890487
71.368784
-31.687656
-118.751059
-18.055892
96.561940
-18.400307
-114.041076
31.972374
70.496118
117.998055
122.410279
47.772485
29.969645
-50.572736
-62.113545
-90.688033
-78.310462
104.303370
210.597113
172.754529
19.853821
-21.797781
-45.839272
-93.294668
7.974592
17.558849
107.924237
186.673722
37.676067
-50.412650
-141.024000
-128.423286
30.577397
15.577482
-54.238710
-44.835512
-142.367671
-172.502342
-46.071699
17.635508
99.624332
80.827610
87.639336
50.679192
-137.659425
-38.193753
-33.710611
-86.973439
-79.992083
-105.224103
-62.633130
-154.987281
-49.246590
27.506298
91.686287
174.297262
80.367862
61.271105
-63.102892
14.279679
85.805722
-37.516983
-29.039868
-79.787338
-98.392869
-8.122817
26.830900
51.488088
157.176565
129.777020
-91.009805
-265.759301
-141.772581
-56.238147
-14.150610
272.884518
122.112111
-28.604706
68.456010
-81.098073
-190.219898
-212.514172
128.344130
208.728871
9.199076
193.335944
168.274853
124.611329
36.464423
-164.263434
-234.450059
-130.697392
74.668710
-10.778140
74.924625
126.105952
-29.210882
-113.768797
-181.008584
-19.525533
-87.003270
-9.753961
159.906150
-113.627879
-87.786657
38.804264
152.668243
249.541144
32.484626
-27.914102
-69.048240
-153.673695
22.660702
14.154273
-219.052704
-166.732543
8.887745
62.297645
-5.185547
-126.604134
-91.384413
-112.875995
-107.859544
120.527950
103.829395
-81.654342
-126.903507
-50.017357
-8.042820
-30.822605
80.220005
66.791962
28.228774
-95.092893
-306.357825
-239.010193
-329.764936
-406.282431
-298.623333
-158.474724
22.737386
139.780438
234.527636
44.607017
-171.983993
-245.165773
-290.526379
-201.466079
-71.434497
5.515817
13.270770
111.268738
191.457352
151.059144
-23.148730
-57.691708
176.205261
457.624408
539.620766
436.665896
677.403665
253.737802
-374.655107
-86.575181
-90.129342
-13.607391
266.115195
333.052390
419.661494
264.826014
-33.515849
-477.600982
-710.251271
-492.198751
-246.959936
-239.008337
-182.967221
-60.122193
-239.886560
-444.320305
-555.309101
-463.341448
-201.592133
31.894399
379.515310
542.264483
664.050946
610.363393
212.797204
92.510178
-157.922709
-443.428267
-498.381164
-515.765253
-309.783754
-139.486167
-14.368405
3.504873
232.351642
377.314840
-123.511990
-355.313608
-361.739014
-476.898948
-530.732232
-539.800804
-243.867233
150.778395
363.993207
387.983044
346.113495
387.438865
360.779146
142.763814
106.916268
319.740125
206.109981
27.072971
-150.448017
-288.115517
-346.769884
-201.126607
285.006078
81.933792
155.384995
460.422747
138.202767
342.984645
519.413859
267.198685
3.404496
-204.213517
-273.075311
-293.530149
-163.438300
41.281753
53.912080
-159.634937
-310.271225
-642.090508
-926.697000
-888.934384
-819.035025
-298.545077
104.708571
219.977129
442.665775
583.776315
273.781661
380.444798
864.505552
-603.498739
-948.581651
442.566166
146.071791
475.410046
1148.114668
104.429842
-185.813153
119.681276
-436.367073
-503.686349
-439.791848
-410.475933
-479.096921
-462.394688
-239.500823
-299.874093
721.771574
1022.798728
616.631794
935.268278
626.990188
432.680484
-0.973040
-503.068329
-506.794458
-810.681386
-896.177333
-753.149426
46.730061
797.170523
550.348967
912.273887
1100.918814
578.992635
426.137907
164.056645
96.195746
-353.501211
-755.269189
-673.042415
-1100.419361
-857.950740
-634.292110
-460.001588
-400.294849
-390.343536
1146.819530
1327.631853
429.267389
422.574160
294.738199
439.595671
529.451648
-228.539005
-1179.922394
-1585.934764
-1168.709873
-702.293259
-691.842406
1002.093269
2165.584347
1555.059760
1434.110059
395.581940
186.808727
800.829867
415.387173
621.107343
-310.574781
-1434.808503
-1163.296487
-935.090053
-450.938898
-390.288932
-652.725819
-901.097687
-990.967911
-558.961292
-102.115407
686.638884
566.368483
427.413820
554.497006
172.145843
650.588798
-302.450108
-1110.166055
-329.351393
-340.869602
223.733553
523.250660
328.374656
745.173783
543.029657
613.873022
910.095718
501.638127
575.022309
57.106989
-732.110172
-173.042469
-3.234549
49.968573
180.074710
74.173781
245.655403
-540.175647
-706.216333
-173.896951
-422.855899
-622.410113
-687.030373
-499.937575
-748.447380
-756.543371
-1194.005911
-729.879694
1630.295152
1739.383767
1102.269839
823.382197
606.376853
983.763841
1143.805944
477.728371
219.823701
965.484124
-589.059894
-1660.555243
-1569.202727
-1382.799101
-250.946526
-547.578320
101.379371
877.978215
880.478527
1789.046822
1733.648160
1151.230495
558.696323
872.766819
545.375326
-1164.928195
-1139.437403
-933.359270
-773.208063
-463.999694
-469.618252
318.217490
449.030722
65.908559
-213.655525
-199.842462
176.764175
251.187699
508.333880
364.627233
-272.906484
-496.839651
-454.560143
-428.447720
-443.925612
-430.281140
-268.310500
222.862255
195.805866
-191.950085
-7.664109
42.314481
-12.210833
50.299351
47.967930
-15.798984
-59.706173
9.679879
96.104287
463.931976
567.488516
113.255964
67.168259
382.529296
400.653253
688.354174
473.362572
-887.742213
-1512.447417
-1515.697387
-1039.181410
-395.921009
-170.652061
962.170757
1270.229641
669.502564
403.533055
254.316414
670.365583
-40.485015
-813.371956
-836.763501
-1014.435935
-830.409211
-776.579262
-812.200028
-1163.470676
125.380249
1940.410857
1180.657140
586.095719
392.795483
217.628016
222.260526
173.883723
1239.476865
97.132715
-2121.671280
-1510.469431
-393.859937
-59.251456
-58.151826
-100.043715
-669.515971
-1524.946325
-946.657154
542.121555
1193.391723
791.004192
544.482931
857.512526
1019.978030
922.441715
736.122295
707.585214
576.115582
243.931581
530.848773
313.216083
-687.217713
-1275.541523
-1300.895115
-714.238732
-503.377702
-632.277164
-572.990213
-532.605213
-150.417664
156.110652
-13.687876
-316.723015
-483.768753
-385.654668
-161.886415
67.711870
187.460952
371.168679
689.008707
708.031990
643.104161
542.393969
342.644668
217.084298
39.751903
-64.560269
-124.592200
-178.825012
-185.422127
-181.258762
-185.660815
-177.004718
-89.476285
-50.921628
24.384077
39.597044
35.120178
221.719152
104.037365
-6.811155
204.703977
160.507663
9.491591
-82.108446
-23.074513
89.159405
-163.232932
-245.653714
18.542122
66.873505
42.513536
198.962751
283.320164
355.036619
610.668337
654.558942
551.627710
215.067354
-455.664010
-625.450328
-388.423642
-15.606540
393.242048
395.662611
282.454334
252.158086
155.064420
-114.744238
-499.281631
-635.251789
-547.098089
-572.370113
-646.057147
-570.727802
-308.280223
84.964982
198.863770
264.624463
536.832924
557.994898
696.837640
821.400532
704.726136
447.039933
-159.999571
-317.981652
-89.126830
1.090488
13.605218
-127.026783
-356.869991
-596.643971
-208.298559
262.851076
145.504394
120.446161
-115.260590
-267.636302
-41.157862
-155.963988
-288.031092
-258.374099
-230.948535
-175.999754
18.833429
243.200972
307.199122
413.734972
369.791414
357.946414
619.050200
841.590257
847.855685
899.815545
911.695915
962.174563
856.719660
-500.857699
-1365.626028
-799.927419
-347.701035
-257.806611
-479.977753
-411.068900
-230.860283
-251.199523
-85.054629
-26.373724
-100.301045
-227.741115
-263.652825
-262.270565
-253.127658
-306.690262
-378.223277
32.386814
398.757969
504.715309
1002.927588
1324.424147
239.361238
-991.795630
-657.675777
152.790661
480.503791
531.124014
499.535147
333.654480
255.187927
191.343082
-346.900848
-705.048144
-553.983453
-439.000123
-527.686573
-584.703606
-474.779829
-396.960323
-274.244141
-158.697628
-194.319174
-226.520319
-255.023371
-372.185356
-498.633103
-375.034480
-281.558599
-267.360555
-8.797586
232.598702
406.473591
499.708405
641.283155
780.256042
653.704647
492.507385
6.006646
-535.482079
-560.551223
-305.788698
126.672000
310.592998
229.436520
308.068588
292.176101
32.859319
-173.779619
-261.352432
-350.139152
-349.783766
-330.702554
-216.604522
51.038210
211.545043
285.252379
445.460996
596.798185
657.811311
491.509037
-365.076518
-932.211357
-729.159552
-817.768330
-759.220687
-326.591918
-24.182525
207.917351
242.428419
286.971567
420.765668
527.671430
913.230542
843.033267
829.134520
819.771108
-786.041239
-1748.545408
-1326.427477
-1137.986211
-892.126284
-696.347017
-806.012802
-862.550299
-677.142114
-467.623059
118.701597
678.240785
676.685558
517.273440
305.892389
229.398534
364.248342
668.475350
740.369748
729.215737
172.628104
-821.642634
-788.389636
-396.796572
-192.938958
-169.388653
-108.080168
248.880796
398.203984
498.505598
368.221819
-3.449135
-257.093566
-359.987391
-411.857848
-517.466536
-501.965742
-353.159238
26.382027
393.722386
369.397745
253.496686
229.091517
393.226566
602.665092
392.390145
221.304454
400.503082
429.698463
361.642737
229.375350
104.496098
73.325462
-204.976137
-413.885989
-342.489312
-280.590108
-164.965405
-2.871373
135.738874
264.096495
324.157821
331.891473
202.646517
-110.449279
-428.382784
-591.914085
-512.409187
-256.438469
-49.448541
78.354729
191.368479
153.545117
151.006399
272.571797
210.315450
110.068429
233.480277
387.717286
294.814239
130.343607
-17.992671
-112.951802
-179.431500
-293.282969
-381.510403
-632.192151
-636.814489
-766.006452
-465.153864
