EVENT_NAME: 202302060117
EVENT_ID: 0
EVENT_DATE_YYYYMMDD: 20230206
EVENT_TIME_HHMMSS: 011732
EVENT_LATITUDE_DEGREE: 37.288
EVENT_LONGITUDE_DEGREE: 37.043
EVENT_DEPTH_KM: 8.6
HYPOCENTER_REFERENCE: AFAD
MAGNITUDE_W: 7.7
MAGNITUDE_W_REFERENCE: AFAD
MAGNITUDE_L: 
MAGNITUDE_L_REFERENCE: 
FOCAL_MECHANISM: 
NETWORK: TK
STATION_CODE: 4614
STATION_NAME: 
STATION_LATITUDE_DEGREE: 37.48513
STATION_LONGITUDE_DEGREE: 37.29775
STATION_ELEVATION_M: 771.0
LOCATION: Pazarck_Kahramanmaras_Turkiye
SENSOR_DEPTH_M: 
VS30_M/S: 541
SITE_CLASSIFICATION_EC8: B
MORPHOLOGIC_CLASSIFICATION: 
EPICENTRAL_DISTANCE_KM: 31.42
EARTHQUAKE_BACKAZIMUTH_DEGREE: 
DATE_TIME_FIRST_SAMPLE_YYYYMMDD_HHMMSS: 20230206_011717
DATE_TIME_FIRST_SAMPLE_PRECISION: millisecond
SAMPLING_INTERVAL_S: 0.01
NDATA: 12001
DURATION_S: 
STREAM: HNZ
UNITS: cm/s^2
INSTRUMENT: sensor = GMSPLUS/GEOSIG | digitizer = 
INSTRUMENT_ANALOG/DIGITAL: 
INSTRUMENTAL_FREQUENCY_HZ: 
INSTRUMENTAL_DAMPING: 
FULL_SCALE_G: 
N_BIT_DIGITAL_CONVERTER: 
PGA_CM/S^2: 1952.681
TIME_PGA_S: 
BASELINE_CORRECTION: -
FILTER_TYPE: BUTTERWORTH
FILTER_ORDER: 
LOW_CUT_FREQUENCY_HZ: 
HIGH_CUT_FREQUENCY_HZ: 
LATE/NORMAL_TRIGGERED: 
DATABASE_VERSION: 
HEADER_FORMAT: DYNA 1.2
DATA_TYPE: Acceleration
PROCESSING: Unprocessed
DATA_TIMESTAMP_YYYYMMDD_HHMMSS: 
DATA_LICENSE: U (unknown license)
DATA_CITATION: Turkish Accelerometric Archive v 1.0 - Disaster And Emergency Management Presidency, Earthquake Department
DATA_CREATOR: AFAD
ORIGINAL_DATA_MEDIATOR_CITATION: : AFAD - Disaster And Emergency Management Presidency
ORIGINAL_DATA_MEDIATOR: AFAD PROCESS SERVICE
ORIGINAL_DATA_CREATOR_CITATION: AFAD PROCESS SERVICE
ORIGINAL_DATA_CREATOR: network: TK
USER1: GuestUser
USER2: 
USER3: 
USER4: 
USER5: 
[...]
1.020353
1.025897
1.029362
1.030230
1.029019
1.031965
1.029455
1.023309
1.024696
1.027642
1.030588
1.031715
1.036999
1.041763
1.035877
1.028432
1.030079
1.035103
1.034931
1.036319
1.039264
1.037534
1.037363
1.039789
1.037799
1.034770
1.040314
1.040662
1.038672
1.047852
1.046382
1.041794
1.045000
1.046647
1.043618
1.042927
1.049250
1.049338
1.048387
1.048736
1.047785
1.048393
1.051079
1.050388
1.048398
1.054461
1.055588
1.051001
1.054726
1.058711
1.053604
1.054991
1.063392
1.056466
1.052918
1.059241
1.053874
1.053702
1.062363
1.062971
1.060981
1.065226
1.064275
1.058648
1.065491
1.066099
1.060472
1.063678
1.068182
1.070608
1.068878
1.070265
1.069834
1.064208
1.064296
1.070619
1.073305
1.070276
1.076339
1.082662
1.074957
1.069590
1.072536
1.073923
1.075310
1.077477
1.079903
1.079731
1.076183
1.079129
1.080516
1.075669
1.079913
1.086236
1.083207
1.081217
1.084163
1.083472
1.082521
1.084168
1.087634
1.087722
1.086511
1.089197
1.086948
1.086257
1.085826
1.089810
1.095614
1.091806
1.090075
1.092502
1.095448
1.095796
1.092767
1.091556
1.093203
1.094071
1.098575
1.103599
1.097972
1.096242
1.098149
1.092523
1.096767
1.106467
1.105776
1.104825
1.106212
1.105002
1.101713
1.098944
1.098513
1.104576
1.111418
1.111247
1.112894
1.110125
1.102420
1.106405
1.110130
1.109439
1.111345
1.115330
1.115159
1.106935
1.110660
1.117242
1.113694
1.119497
1.125820
1.116556
1.109371
1.112317
1.112405
1.113013
1.125830
1.136829
1.126526
1.117523
1.120469
1.109127
1.108176
1.130085
1.137967
1.133379
1.133468
1.127581
1.112863
1.112431
1.126807
1.134169
1.135556
1.139541
1.140928
1.132444
1.120843
1.120931
1.128033
1.135655
1.139899
1.143365
1.144752
1.134449
1.129862
1.136445
1.136533
1.135322
1.136969
1.138356
1.139224
1.144248
1.150311
1.149880
1.145033
1.139666
1.139494
1.135426
1.134216
1.149111
1.158031
1.155782
1.155610
1.152581
1.142799
1.138211
1.142975
1.146181
1.154322
1.166360
1.161772
1.153288
1.148181
1.143593
1.146020
1.152602
1.160224
1.167586
1.167934
1.160229
1.159278
1.151314
1.142830
1.155647
1.165347
1.168292
1.175654
1.174963
1.157647
1.149682
1.157564
1.162848
1.169430
1.174714
1.176101
1.166058
1.156795
1.163378
1.171259
1.180699
1.181567
1.171784
1.165378
1.159232
1.166334
1.185385
1.189370
1.179327
1.173961
1.168854
1.165045
1.170849
1.183406
1.194405
1.189557
1.178995
1.171290
1.166443
1.176662
1.188960
1.187749
1.184980
1.190004
1.184897
1.176413
1.179618
1.188019
1.195641
1.194171
1.190363
1.184996
1.178590
1.183873
1.192794
1.199636
1.199984
1.194618
1.195225
1.185962
1.182673
1.199647
1.202852
1.198525
1.200171
1.196363
1.190217
1.193163
1.201824
1.203211
1.204338
1.204686
1.198280
1.193953
1.201314
1.209975
1.207726
1.206515
1.205824
1.200457
1.198467
1.202972
1.213451
1.218735
1.216745
1.208520
1.197439
1.198047
1.205408
1.216667
1.230263
1.226195
1.211996
1.202733
1.196587
1.202909
1.221182
1.235557
1.230450
1.217290
1.214002
1.208115
1.211840
1.226216
1.233058
1.228471
1.219467
1.217737
1.212370
1.215836
1.230731
1.234976
1.232726
1.228138
1.225629
1.220262
1.218272
1.231089
1.237672
1.238540
1.234472
1.226507
1.224777
1.222268
1.234565
1.246603
1.246691
1.244701
1.233620
1.226954
1.220028
1.225052
1.245662
1.254323
1.251554
1.244888
1.238482
1.228699
1.231126
1.243163
1.248707
1.252952
1.250182
1.245335
1.239968
1.240316
1.251055
1.251923
1.245777
1.248723
1.247772
1.237729
1.245611
1.264143
1.263452
1.254708
1.254017
1.249169
1.240685
1.246489
1.257227
1.261992
1.265717
1.266065
1.261737
1.250655
1.243730
1.250832
1.257934
1.271011
1.278373
1.268850
1.262703
1.252920
1.248593
1.256734
1.264356
1.276393
1.285054
1.280986
1.266527
1.253627
1.252676
1.257440
1.270517
1.288270
1.290177
1.281173
1.270091
1.259529
1.257020
1.262303
1.277199
1.286898
1.285428
1.285776
1.279630
1.270626
1.272793
1.275479
1.274788
1.282150
1.286395
1.284405
1.284493
1.283542
1.285968
1.283719
1.280170
1.281298
1.280347
1.281734
1.289616
1.300614
1.298105
1.288842
1.283734
1.278368
1.280274
1.286337
1.300194
1.310413
1.302448
1.296302
1.288597
1.281152
1.285657
1.295876
1.304537
1.305145
1.305493
1.300905
1.291122
1.290951
1.299612
1.302817
1.300568
1.307150
1.310096
1.300833
1.298063
1.306984
1.309670
1.304043
1.303872
1.308117
1.308465
1.305176
1.309421
1.312107
1.307779
1.313322
1.316788
1.309343
1.309431
1.311338
1.310647
1.315930
1.324072
1.321822
1.311000
1.310309
1.310917
1.313343
1.323822
1.327547
1.327895
1.323568
1.318980
1.314912
1.311364
1.320544
1.327906
1.331111
1.330680
1.324534
1.320986
1.316398
1.320123
1.332421
1.341861
1.340910
1.326971
1.320045
1.322991
1.322300
1.331221
1.346895
1.342827
1.333564
1.329236
1.323609
1.325516
1.336515
1.344656
1.340068
1.337039
1.337647
1.333839
1.336525
1.341809
1.346833
1.347960
1.340255
1.340344
1.341471
1.342339
1.349441
1.353945
1.352995
1.345549
1.345378
1.351961
1.352049
1.359930
1.369370
1.366861
1.355260
1.347815
1.353618
1.363318
1.372498
1.381159
1.383325
1.372503
1.367916
1.373979
1.371989
1.373896
1.385414
1.388879
1.384811
1.388796
1.396158
1.397805
1.401790
1.410451
1.418852
1.428292
1.437991
1.442236
1.462067
1.483457
1.491338
1.508831
1.522168
1.540959
1.561570
1.560359
1.570059
1.596904
1.630502
1.669556
1.691205
1.696489
1.693980
1.691990
1.702469
1.707233
1.703685
1.699617
1.691393
1.688883
1.688452
1.695554
1.713047
1.704303
1.652957
1.591480
1.568968
1.606983
1.727864
1.877321
1.922609
1.872562
1.799655
1.726747
1.661373
1.664319
1.838194
2.112340
2.278162
2.318255
2.427707
2.574046
2.532052
2.397059
2.311683
2.147596
2.068715
2.310390
2.526867
2.529553
2.688101
3.025372
3.091182
2.635893
2.096957
2.179133
2.527314
2.394919
2.202777
2.313268
2.049169
1.407105
1.078583
0.920991
0.155535
-0.751755
-0.233944
1.109938
1.868037
1.877996
0.640797
-1.598597
-3.327542
-3.740489
-3.227354
-2.276505
-0.885605
0.728438
1.641880
2.077604
2.345516
0.602283
-1.884153
-1.587666
0.766464
2.764708
3.220434
2.373929
0.923199
-0.044358
0.940780
1.804086
0.538832
-0.141939
1.225582
1.807297
0.047699
-1.986996
-2.287982
-1.151657
0.574867
2.399065
2.054178
-2.059721
-5.540559
-2.460111
3.144788
4.851829
5.778000
6.499212
2.731587
-1.100201
0.144968
1.588082
2.065628
3.561736
5.060181
6.656560
5.169981
2.456246
1.674424
1.104576
0.231315
-1.802860
-0.394555
5.843665
10.818620
9.929774
4.918107
4.109789
2.963770
-4.628198
-7.074889
-4.156018
-4.982520
-3.813204
0.497258
2.531610
4.332169
5.623577
3.841898
1.186092
0.849258
-0.957618
-5.241927
-3.350709
0.593217
-2.009076
-1.953657
3.896985
5.494923
2.421665
0.974571
1.964385
0.389484
-1.123591
6.555317
12.606242
5.739034
-1.619919
-4.085574
-4.064963
0.223159
3.798470
5.011687
5.855510
5.168505
3.301622
-0.029588
-1.143396
1.026816
-0.580816
-1.609160
3.250458
6.249598
4.844847
2.034477
-1.383757
-3.098154
-1.107963
0.930545
2.305340
4.692200
3.720487
2.770334
6.237061
9.943817
9.468525
2.640023
-4.563848
-7.975327
-6.495845
2.082908
9.463859
10.114154
8.510158
5.602894
2.280516
-1.014326
-5.277334
-6.440498
-1.782463
8.606372
14.537284
5.917923
-7.957637
-21.845925
-25.967617
-2.535179
32.451336
39.663696
9.734312
-19.346921
-21.927914
-11.866649
0.019763
10.089860
12.419831
7.015911
-2.023759
-9.124500
-4.566736
2.840971
2.398150
10.000946
14.215293
4.750898
5.410804
3.762907
-10.757403
-14.986640
-9.956873
-8.631435
-7.394579
5.018649
14.608949
2.201873
-1.047250
16.850515
19.354273
7.746511
1.422483
-10.854188
-20.052578
3.652619
29.682763
18.234240
2.401049
-7.311426
-33.166827
-41.253398
-12.121074
14.916460
23.338832
22.239051
10.502963
-6.754031
-16.705495
-13.298775
-4.906537
1.303368
9.827310
16.457524
10.533543
2.176551
2.099227
0.995290
8.700175
20.271227
11.919689
5.754641
11.781148
14.405180
18.103363
20.783245
17.237464
16.207822
21.644390
22.660960
21.908753
25.640187
13.378062
-10.080695
-10.738606
3.968916
10.587440
8.691463
-4.822496
-21.968308
-31.752220
-18.576566
18.155868
17.259228
-4.685846
9.612796
8.056339
-4.186822
21.215197
32.252419
20.311891
26.106683
17.316393
4.290803
29.058981
40.069187
22.689842
36.014604
66.678536
57.650297
34.917598
24.280079
-20.294912
-77.180434
-44.021925
41.408149
28.050832
-17.978356
3.526064
1.972205
-27.238394
-5.900487
25.331304
-6.387121
-27.914484
0.313839
-12.486270
-51.107839
-60.153223
-54.585211
-28.530389
33.467335
78.572176
67.200546
45.651622
14.533787
-35.349617
-54.462153
-27.054186
27.816472
45.877892
22.099877
33.386219
46.316650
24.021405
12.076721
7.995033
-9.710584
-7.114608
25.001701
31.281745
7.800907
-2.932467
7.658209
37.867023
77.946082
81.424759
54.394415
52.592994
39.916795
4.780309
22.482207
77.699139
81.239901
49.702017
42.007440
-8.675798
-68.472570
-56.464324
-48.253146
-23.126485
45.307576
97.543640
86.905602
49.549116
60.762203
29.088719
-48.150350
-56.948173
-12.927615
10.004764
16.245062
63.630170
79.960478
-10.893429
-18.087688
77.245361
38.588464
25.597423
17.169773
-45.107807
98.936390
155.409573
-16.420034
-87.617618
-69.856492
-134.333810
-121.844210
45.814435
67.275993
-88.453289
-203.310782
-288.991357
-347.125337
-139.594758
-1.961699
-72.036815
167.074598
186.394347
-132.741827
-27.574122
148.969459
-44.020802
-252.310774
-135.100362
205.489925
234.207136
-67.239698
-68.814080
55.661077
-33.207663
-42.340071
-40.889943
-64.646657
64.098609
85.127129
-40.242761
-0.928987
7.721204
-82.473146
-46.054256
41.707779
181.391986
186.968051
42.841423
-26.964050
-17.152426
123.287195
148.177725
58.055591
130.228531
43.424707
-197.416602
-301.598821
-497.411230
-198.841958
548.487558
285.999304
-306.198657
36.252107
408.790544
13.169067
-341.486584
15.168178
274.332844
81.649112
31.928844
191.342630
198.031032
-75.524230
-111.824489
36.236802
-28.022049
51.775937
111.954748
-122.071998
-297.444616
-120.153935
43.293829
-77.663337
-50.296674
-15.322887
39.705971
165.351654
-6.217402
-10.959946
102.404562
-39.419200
-169.055822
-251.918406
-58.719372
246.977486
-34.821338
-356.217516
-38.700575
214.718224
63.916271
-130.653136
-54.281264
89.160785
-9.788874
156.798738
173.665473
-201.830796
-249.239366
-83.603554
10.947846
41.470463
229.110665
285.690353
52.292252
-192.319627
-347.909673
-218.948537
-106.755855
35.467351
180.912231
-9.241075
-101.814924
-1.053708
41.538892
6.275378
-216.975823
-388.216789
-30.061592
394.375379
306.479479
112.089055
117.854492
-104.125911
-415.777574
-301.754288
-145.396963
257.533857
600.601057
127.221660
-469.347721
-401.703623
231.873897
177.132782
-126.930982
204.724495
212.224681
-164.514070
-380.937460
-180.873468
140.192719
297.180767
168.785328
-233.793326
-270.876274
7.121243
169.093769
121.061231
-46.860127
-190.563848
-375.231837
-255.956769
177.905199
261.270356
81.415397
-59.872718
-2.037038
252.407855
177.947293
-107.334275
-309.739144
-289.622418
321.801343
556.709148
-32.490281
-149.146944
106.860989
-57.564115
-341.043135
-287.550301
-47.372269
-124.526654
-239.455843
144.636672
445.439971
293.823637
294.365606
443.685745
259.569768
-99.896055
-61.583177
259.552109
215.128303
-233.431310
-471.130693
-233.823127
29.631391
186.479682
317.381304
251.058316
19.148441
41.356320
113.232341
-147.240353
-351.898731
-397.693606
-330.873759
-132.070954
160.136016
192.775244
3.634524
-74.319435
-154.412344
-130.793391
-191.867455
-154.760951
77.610713
28.079817
-79.983634
10.859020
-29.691865
-482.993851
-608.074097
50.426595
405.518837
293.017205
283.937530
68.425676
-250.445792
-373.068348
-302.005928
-239.107579
-125.469533
119.032900
-57.488164
-150.807814
197.648068
129.112094
-291.926901
-540.504958
-134.189326
638.827868
521.987547
-22.104532
-189.890288
-221.711322
80.162232
223.373605
4.391734
71.390563
2.334268
-227.540305
-52.703158
76.829733
-102.452432
-173.553122
-192.812947
-3.749202
536.202569
619.124557
289.581712
275.248177
263.548197
17.165721
-234.429832
-358.165245
-111.602572
-21.946030
-227.735969
-152.490722
166.006333
333.178429
104.811825
-37.206764
-105.671302
-185.487556
-240.274910
-352.054121
63.010845
599.134896
572.472647
44.794176
-631.010440
-424.951202
162.347402
84.156013
-18.614612
-157.976787
-39.403359
272.716068
70.226255
64.663355
113.003380
-17.978075
-233.771781
-516.662420
-430.122347
-250.784154
-22.327233
126.244507
136.389936
339.186715
525.155813
299.414451
-204.350057
-21.622377
133.169570
219.006185
213.122729
-523.328197
-709.684955
-1137.377974
-173.866566
1098.107389
97.269457
18.511769
-274.916206
-749.904882
136.567391
133.024987
-141.228019
463.038802
668.919318
569.290618
274.421956
-280.241748
-612.485168
-777.512940
-855.320388
-927.252344
751.304719
1718.775291
534.130680
160.779857
-162.553171
-389.033581
-292.683529
-214.250897
-288.382590
115.013999
669.763084
170.040607
350.641026
551.538881
268.829822
209.393612
71.318341
-186.754332
-346.596303
-655.347628
-940.465280
734.523833
1269.776353
-363.885675
-580.781847
-739.431991
-1054.325072
-742.183564
-846.194075
579.884906
1952.680776
556.757185
-156.959915
-332.175111
-1006.073011
-726.380231
-293.164832
417.582226
719.307971
-220.290855
-701.209056
-572.143232
343.472707
1455.578886
435.643657
-305.402870
195.112343
-259.720211
-509.114987
-281.631687
-725.633105
-149.441254
1232.906641
881.389799
160.065317
93.080693
-22.406224
-5.618459
-172.416568
-241.844335
69.951158
-217.197641
56.935268
984.346352
230.493653
-534.451253
-435.425044
-978.886659
-407.061293
1043.825522
383.142674
-359.235178
-20.788518
-35.042044
410.476092
526.334917
273.375049
-22.742331
-383.096570
-170.579174
-639.414145
-23.981603
1563.688992
998.682781
242.455258
24.381806
-580.191108
-689.421969
-558.801159
-656.205702
716.670437
1594.798618
-4.962824
-483.839748
-256.928462
-391.651393
-692.041480
-890.357039
-649.455287
-358.119588
1402.202616
1699.007006
158.332470
-110.454962
-637.103703
-767.398065
-469.852029
-610.146261
-458.277253
-938.317429
464.165806
1803.527898
330.981845
4.376745
-277.541572
-762.163583
-123.560021
376.354862
355.049343
32.983996
216.010412
-127.859043
-615.276965
-487.822759
-454.105482
597.410757
1026.124591
4.802187
-41.308569
-104.082571
-119.739897
260.808307
-48.285914
-261.954956
-98.699162
245.914712
251.543251
191.626725
173.409619
-47.057360
147.063600
182.550173
-0.405149
-116.476549
-452.079324
-572.389142
-504.765305
-230.809819
262.714187
486.378340
589.196161
397.024177
216.371462
247.781715
151.633162
138.485740
-32.488961
-331.283537
-635.729423
-683.985884
-475.541432
605.947661
1544.897497
334.927589
-581.630882
-588.364048
-489.184055
296.981689
468.691198
-74.285166
-387.722492
-301.824831
-360.273913
62.326739
1114.343037
606.045533
-353.499780
-330.479599
-556.487226
-229.577499
490.852770
176.006967
-98.079266
-286.001663
-839.629141
-829.118474
-598.750940
267.109834
1492.829811
1218.292616
262.414225
-269.911803
-572.047289
-809.280643
-1012.638090
-852.219252
185.356917
1702.773587
1228.944266
-586.218976
-950.857352
-764.054131
-900.959915
-870.255199
-386.472071
162.884696
646.483127
1112.940333
654.785832
-5.214339
-109.481503
-107.877851
-86.225361
-307.656090
-272.476045
-108.395480
-272.288314
-449.300344
-93.217597
1304.101918
1534.526602
534.522014
-41.499510
-574.513411
-447.448081
-217.319017
-329.036402
-327.977229
-383.835098
-100.612814
333.201876
128.430497
-258.262145
-304.863607
-146.834659
165.770539
295.394610
532.460849
419.079633
-186.471317
-224.849481
-87.483207
-54.776699
-108.022574
-303.400647
-81.147568
40.522846
-358.978047
-364.113364
59.302448
189.426317
29.192352
-155.042860
-357.762050
-295.247902
-239.477139
-289.509652
365.945490
548.605110
310.215256
501.587063
22.412183
-261.627681
-429.709057
-283.513439
557.173483
186.219563
-97.520006
159.865751
59.675687
349.313785
286.315081
-115.827419
-274.128171
-313.590877
-334.197872
-179.399951
528.643156
637.167357
-3.779418
-119.344266
25.059713
56.229939
-19.986674
-264.700383
-308.951961
-250.182925
-77.836199
348.930914
367.487197
227.296614
135.822634
-60.711678
-232.162538
-266.997431
58.128451
213.529820
367.950555
177.737242
-410.754312
-344.287234
-227.049286
94.699318
651.291216
416.172914
-69.407910
-318.428616
-420.522279
-245.391851
118.278796
212.164144
77.822296
171.622179
64.900962
-133.980117
127.114385
196.502064
-18.585845
125.630061
139.225245
-17.061246
-45.792828
-253.954992
-513.904249
-284.452146
379.933390
536.742975
526.736959
366.719383
37.931950
14.104578
-149.067133
-322.140001
-580.578431
-496.774002
-405.739377
223.330862
1362.848037
783.578340
202.499082
199.880422
-203.004502
-197.292837
-153.091738
55.985255
358.232360
298.885771
83.633427
-178.612201
-153.066270
-117.403312
-336.914855
-482.349688
-528.458365
43.949927
465.684244
-157.718403
-320.379665
-132.273435
17.886023
708.818558
360.276089
-338.729680
-27.509839
-115.563159
-189.640041
-107.114203
-318.238792
-114.448390
85.038911
164.786762
281.584398
39.097702
-243.380941
-207.483410
-153.239579
-210.860511
-232.986645
-265.995350
-261.139110
-294.935959
-220.306368
-17.876645
-23.662688
79.535177
33.419485
-154.104423
-9.093099
47.936252
141.730940
339.603767
202.876705
-70.918326
-246.360302
-349.470447
-170.328641
182.395532
129.545287
-110.053539
-48.571979
31.092226
148.108849
261.190466
171.506566
134.920300
-27.625884
-85.782463
-51.517331
-171.852087
-125.975727
-218.029775
109.752522
503.445899
128.020028
-121.576070
-266.465644
-345.352698
-446.590157
-263.610760
393.790583
297.326929
-66.651629
-24.339063
-40.027042
-128.697578
0.733223
48.267179
-4.609043
152.213791
99.234700
-32.384492
-194.702596
-377.620252
-619.448169
174.830731
1499.591116
774.593217
-157.518240
-220.686054
-404.049995
-403.163050
-400.246517
-277.660672
-144.930784
62.695131
389.109475
336.243125
102.077661
33.109428
64.681519
130.543071
-123.995423
-366.734096
-483.552078
-394.498723
598.859810
651.296676
-201.090917
-247.301165
-208.987248
74.986811
371.961092
231.251227
37.639594
-202.518258
-346.392389
-229.034687
171.454289
205.137016
24.249468
73.932766
-139.678607
-100.565115
281.440922
276.801247
126.364531
66.991965
-100.995893
-264.726630
-112.930618
43.927025
-0.092058
-40.619304
-129.879518
-80.473915
-71.314834
-62.080939
335.285594
433.253237
229.194929
119.890294
-30.086628
-52.452271
-38.089205
-3.878105
-31.478646
-95.486298
-135.559985
-126.012027
121.851837
237.520250
179.069351
35.474474
-32.615475
77.911039
1.447125
58.358541
184.705345
92.397761
71.438776
36.265922
-10.402561
-59.468208
