EVENT_NAME: 202302060117
EVENT_ID: 0
EVENT_DATE_YYYYMMDD: 20230206
EVENT_TIME_HHMMSS: 011732
EVENT_LATITUDE_DEGREE: 37.288
EVENT_LONGITUDE_DEGREE: 37.043
EVENT_DEPTH_KM: 8.6
HYPOCENTER_REFERENCE: AFAD
MAGNITUDE_W: 7.7
MAGNITUDE_W_REFERENCE: AFAD
MAGNITUDE_L: 
MAGNITUDE_L_REFERENCE: 
FOCAL_MECHANISM: 
NETWORK: TK
STATION_CODE: 4614
STATION_NAME: 
STATION_LATITUDE_DEGREE: 37.48513
STATION_LONGITUDE_DEGREE: 37.29775
STATION_ELEVATION_M: 771.0
LOCATION: Pazarck_Kahramanmaras_Turkiye
SENSOR_DEPTH_M: 
VS30_M/S: 541
SITE_CLASSIFICATION_EC8: B
MORPHOLOGIC_CLASSIFICATION: 
EPICENTRAL_DISTANCE_KM: 31.42
EARTHQUAKE_BACKAZIMUTH_DEGREE: 
DATE_TIME_FIRST_SAMPLE_YYYYMMDD_HHMMSS: 20230206_011717
DATE_TIME_FIRST_SAMPLE_PRECISION: millisecond
SAMPLING_INTERVAL_S: 0.01
NDATA: 12001
DURATION_S: 
STREAM: HNE
UNITS: cm/s^2
INSTRUMENT: sensor = GMSPLUS/GEOSIG | digitizer = 
INSTRUMENT_ANALOG/DIGITAL: 
INSTRUMENTAL_FREQUENCY_HZ: 
INSTRUMENTAL_DAMPING: 
FULL_SCALE_G: 
N_BIT_DIGITAL_CONVERTER: 
PGA_CM/S^2: 2175.077
TIME_PGA_S: 
BASELINE_CORRECTION: -
FILTER_TYPE: BUTTERWORTH
FILTER_ORDER: 
LOW_CUT_FREQUENCY_HZ: 
HIGH_CUT_FREQUENCY_HZ: 
LATE/NORMAL_TRIGGERED: 
DATABASE_VERSION: 
HEADER_FORMAT: DYNA 1.2
DATA_TYPE: Acceleration
PROCESSING: Unprocessed
DATA_TIMESTAMP_YYYYMMDD_HHMMSS: 
DATA_LICENSE: U (unknown license)
DATA_CITATION: Turkish Accelerometric Archive v 1.0 - Disaster And Emergency Management Presidency, Earthquake Department
DATA_CREATOR: AFAD
ORIGINAL_DATA_MEDIATOR_CITATION: : AFAD - Disaster And Emergency Management Presidency
ORIGINAL_DATA_MEDIATOR: AFAD PROCESS SERVICE
ORIGINAL_DATA_CREATOR_CITATION: AFAD PROCESS SERVICE
ORIGINAL_DATA_CREATOR: network: TK
USER1: GuestUser
USER2: 
USER3: 
USER4: 
USER5: 
[...]
2.578059
2.582292
2.593020
2.604008
2.610320
2.600266
2.587874
2.586393
2.592705
2.608369
2.622474
2.627746
2.616394
2.595430
2.583558
2.590649
2.614105
2.630808
2.638938
2.634600
2.617532
2.607219
2.602880
2.604776
2.616543
2.630907
2.635401
2.634699
2.639452
2.644465
2.640906
2.627994
2.614304
2.610485
2.624330
2.646228
2.659554
2.665346
2.664124
2.649135
2.630249
2.620975
2.627027
2.646587
2.665628
2.673758
2.671497
2.657547
2.643856
2.645233
2.658299
2.669026
2.669883
2.659310
2.645360
2.657386
2.682142
2.694688
2.692947
2.669905
2.649980
2.647200
2.663123
2.693074
2.708738
2.698424
2.676421
2.662731
2.665406
2.684187
2.700110
2.705383
2.700524
2.685015
2.677819
2.678416
2.688625
2.709224
2.719172
2.715353
2.704780
2.685374
2.672983
2.688127
2.715740
2.734001
2.733299
2.715972
2.699684
2.693786
2.700618
2.720438
2.732724
2.726827
2.714435
2.714253
2.726020
2.730513
2.730591
2.729889
2.727368
2.720692
2.716872
2.723964
2.737809
2.753472
2.757706
2.748172
2.733702
2.721570
2.720089
2.730557
2.751416
2.766041
2.761962
2.751129
2.740815
2.740373
2.750841
2.761309
2.766062
2.759645
2.750371
2.747591
2.753903
2.771385
2.784451
2.781411
2.766162
2.750913
2.745015
2.753665
2.774524
2.788889
2.800656
2.798915
2.775613
2.759065
2.755505
2.766233
2.785274
2.801457
2.812185
2.807327
2.790519
2.781764
2.781062
2.786594
2.805116
2.813246
2.803971
2.797554
2.795034
2.792774
2.802722
2.810593
2.815346
2.814644
2.796797
2.793497
2.806823
2.816512
2.825162
2.829655
2.824017
2.811106
2.803650
2.807105
2.817313
2.830379
2.842146
2.838327
2.823337
2.812764
2.812582
2.829544
2.848065
2.857494
2.849519
2.830633
2.824476
2.823514
2.830086
2.849646
2.861413
2.861230
2.851436
2.836187
2.832888
2.841537
2.855642
2.865331
2.865409
2.859251
2.851536
2.852652
2.856886
2.862418
2.870808
2.872704
2.866807
2.866105
2.862545
2.864441
2.875948
2.879922
2.880259
2.870985
2.864308
2.870100
2.879270
2.888959
2.893972
2.893010
2.882437
2.876539
2.874019
2.878512
2.893656
2.905683
2.913554
2.900383
2.884354
2.882873
2.884249
2.895497
2.906484
2.913056
2.915731
2.910353
2.905495
2.901935
2.899155
2.903909
2.907882
2.916013
2.927000
2.925519
2.922219
2.919959
2.915880
2.915697
2.914476
2.913254
2.925801
2.937828
2.938944
2.940320
2.934163
2.926707
2.924966
2.929200
2.931875
2.934550
2.946317
2.946394
2.942055
2.947848
2.952601
2.949821
2.944183
2.942442
2.940701
2.944675
2.954883
2.963014
2.964130
2.960051
2.961168
2.956049
2.954568
2.961400
2.964334
2.973244
2.973841
2.969242
2.966202
2.967579
2.972851
2.971630
2.974565
2.975681
2.977837
2.980512
2.984226
2.991317
2.986718
2.980821
2.977002
2.977859
2.987288
2.991521
2.994716
3.001547
3.004482
3.000663
2.996844
2.993544
2.991024
2.998115
3.001569
3.006842
3.013933
3.009594
3.012269
3.015983
3.013463
3.015359
3.012579
3.007720
3.007538
3.012551
3.024058
3.034267
3.032526
3.021952
3.018653
3.018990
3.018028
3.027457
3.039224
3.042679
3.042236
3.032702
3.023428
3.026103
3.035272
3.044701
3.048675
3.052389
3.051947
3.044491
3.042490
3.043087
3.043944
3.048697
3.056568
3.062100
3.062957
3.067190
3.066229
3.063449
3.070020
3.068279
3.062901
3.068694
3.071888
3.070147
3.076978
3.087447
3.090122
3.089939
3.091835
3.088535
3.076923
3.074662
3.083052
3.101573
3.116977
3.112379
3.107780
3.104481
3.105077
3.116845
3.127832
3.129208
3.128247
3.137936
3.151521
3.165366
3.178172
3.182925
3.182224
3.185418
3.201861
3.226617
3.244358
3.255346
3.261658
3.258358
3.263631
3.279814
3.295997
3.306206
3.300828
3.294151
3.304879
3.320283
3.327374
3.319139
3.292200
3.271755
3.264299
3.262039
3.272247
3.292327
3.310069
3.314302
3.299313
3.284324
3.284141
3.303701
3.335211
3.350095
3.370435
3.421167
3.502813
3.592771
3.637528
3.636047
3.616382
3.578793
3.535228
3.554529
3.667347
3.800426
3.855575
3.804997
3.745847
3.761770
3.767563
3.675681
3.543275
3.495035
3.590968
3.690797
3.599176
3.410400
3.356705
3.437311
3.445441
3.120545
2.661348
2.539853
2.775802
3.118257
3.168730
2.667970
1.959393
1.629561
1.876161
2.293170
2.205705
1.675071
1.537729
2.158659
3.211586
3.766534
3.202909
2.167281
1.480784
1.707382
2.785767
3.655037
3.620305
3.077202
3.100918
4.176186
4.978435
4.042299
2.147610
1.249660
2.099707
3.618143
4.136983
3.309950
2.194832
2.124512
3.224978
3.842270
2.829761
1.850244
2.920057
4.858542
5.310361
3.692067
1.433958
0.891115
3.136910
6.215269
7.414707
5.817715
2.425967
1.123295
3.607299
7.109863
8.737663
6.927659
3.674369
1.839167
1.769886
3.128304
5.297725
6.912277
6.884299
5.665793
3.986193
2.526360
2.513189
3.586119
2.867670
0.268483
-0.473604
2.011958
5.675321
6.711363
4.043856
0.832130
-1.268038
-1.963107
-0.750161
1.160010
2.132668
2.269645
2.807447
3.865311
4.237639
4.146537
3.846320
2.612227
1.404631
1.520046
4.074188
6.831211
5.240453
1.551268
-0.423950
-0.569604
1.661903
5.425797
8.169571
7.381245
2.087716
-2.464686
0.327146
6.953972
8.542287
2.500619
-4.916534
-5.309230
0.932616
6.954176
8.924354
7.271251
3.918988
1.255118
1.167653
3.538916
6.243725
5.775696
3.647213
4.920426
8.003981
8.512429
5.931685
2.762301
0.709931
-0.531955
0.752168
5.171204
7.644817
5.375538
2.006391
1.394708
4.212517
6.880179
5.485548
0.196955
-4.629246
-3.660484
2.552268
8.871006
9.331137
2.573541
-3.359023
-0.929830
6.904669
10.067194
4.697553
-2.093553
-2.560803
4.358525
13.290295
14.514412
2.748698
-11.810848
-11.802458
6.872789
25.965488
23.730498
3.575493
-13.637611
-13.973936
0.943469
13.537746
10.109890
-0.008098
-3.474920
0.008682
3.707113
2.071935
0.001900
4.445873
10.220132
9.946151
5.038382
1.229962
0.278760
-1.257446
-3.138888
2.128559
12.977437
13.917884
4.951199
-0.955908
-4.059051
-4.804255
0.617755
9.215980
14.367828
9.157946
-2.053937
-3.959796
3.016941
4.203390
-1.963747
-5.316009
-2.138418
2.595720
2.677625
0.743450
7.630306
19.658023
20.509888
5.846174
-14.584708
-21.572980
-4.411416
20.783814
34.901126
33.673007
16.319108
-9.033388
-19.978486
-5.450996
19.927891
35.062725
27.630245
6.494086
-2.380900
7.921680
21.280981
22.885662
7.632008
-8.794770
-8.526349
0.818457
9.919338
11.108385
-0.052582
-7.004486
-6.214706
-8.043414
-6.928401
-1.944365
-0.320201
3.642157
10.854766
14.902070
21.508374
26.035734
20.629984
15.994455
17.480680
20.130937
22.745086
24.156238
20.085190
15.135338
16.995113
23.160067
18.607924
-0.096523
-11.811581
-11.083107
-2.582296
15.900981
29.083119
13.790500
-24.121387
-50.833782
-47.000010
-20.688026
0.119678
-7.158498
-24.123520
-19.062592
6.524112
21.395538
15.330232
5.391225
0.370975
6.118738
18.219190
27.004450
27.668501
19.888968
21.889279
42.332006
63.516377
62.836895
35.783680
-7.757436
-46.210424
-49.880386
-21.152016
11.857114
30.477550
33.969464
26.783766
12.600887
0.020273
0.295188
19.790531
37.503588
39.397913
41.394847
50.593402
58.488688
44.722481
21.585568
14.944869
18.692917
31.293428
36.901434
34.802824
40.262760
39.315454
26.989156
14.025900
22.621008
50.074684
69.448454
62.683585
23.841979
-22.664938
-46.018499
-33.650223
10.116788
50.544188
51.617638
33.902658
-5.215084
-39.165209
-8.027726
25.752144
42.615751
63.438522
47.780925
12.410894
-4.040042
-28.092646
-49.365965
3.035303
71.813029
58.435179
-9.615035
-69.323495
-122.750701
-118.207236
-31.548198
-16.179052
-36.052466
-21.969704
-89.358023
-129.032193
-25.288301
74.432782
97.717140
60.314663
-16.723355
-40.865320
-27.668635
22.090505
95.944669
88.292683
67.265108
59.901208
1.098308
-61.846894
-57.426300
-31.016642
-26.642027
-9.152114
3.197979
26.595856
36.789332
7.389350
2.357670
38.640170
82.072337
70.679395
40.988469
82.466901
113.846750
92.168709
67.890884
-29.782273
-80.670482
-39.017744
27.342038
183.209425
226.399485
56.850395
-154.243292
-148.032619
2.338281
0.166156
27.380064
146.934375
126.297754
-33.437202
-92.652618
31.336757
118.009303
137.414246
165.362525
112.891274
-3.752412
-53.562312
-28.239015
-44.446027
-57.772962
22.379341
76.054263
87.758306
69.038273
-64.035385
-184.067260
-258.394831
-282.442240
-120.187873
74.839415
164.958597
150.168115
44.626246
4.955712
29.597891
-28.341012
-57.615265
-26.519605
-22.017703
14.085555
41.861346
96.285707
53.007479
-49.855635
-36.596865
-77.886030
-77.670862
0.073367
97.947741
119.119904
46.164441
29.658433
-2.030648
-21.531811
-76.815858
-82.399030
-39.968539
-74.377419
-9.104517
75.213987
63.616865
-1.938772
-55.574834
-33.898717
29.778414
30.859916
-41.457031
-105.297142
-104.791292
-40.083651
36.401210
142.986473
121.281935
16.171545
-71.486156
-119.985773
9.805059
183.648053
310.285530
146.758701
-103.438517
-162.144782
-277.837708
-255.786222
-39.373317
189.963956
207.919638
114.790389
87.665997
-36.552601
-52.797799
-3.701074
32.076692
24.279234
-115.178027
-120.001890
-47.963003
93.026800
232.560070
84.730660
-180.874333
-300.846720
-164.388096
10.649064
60.936837
71.851957
-15.742880
-49.329845
28.272030
47.054043
41.653749
79.665022
146.907764
137.848341
137.647876
134.637991
-4.161532
-142.597116
-201.082316
-74.322747
43.778407
57.921696
152.986911
119.562042
-50.130702
-128.275083
-57.212673
-32.325791
-120.708772
-168.572471
-133.428805
-46.269190
-2.289166
80.745032
182.200864
183.854121
112.146337
93.563203
76.667279
-42.798295
-113.856653
-184.173366
-203.331892
-184.225165
-198.219191
-205.734798
-162.359261
-16.832823
19.724774
26.637347
20.962736
-43.099740
-53.531531
-51.182088
113.394108
295.076200
277.213930
107.435202
52.722911
239.388442
259.834286
259.141036
279.927439
215.687540
239.242059
153.066869
-61.195240
-302.380496
-423.538217
-409.228675
-260.117143
115.901950
576.377927
785.685846
723.793754
688.501394
650.443517
441.981047
-17.120329
-343.755833
-355.950687
-271.381764
-211.345839
-299.989369
-255.028192
-184.048910
-374.491352
-389.724743
-212.053509
-45.027416
29.060022
-146.763049
-330.849683
-421.812705
-396.594615
-284.893430
-29.287632
220.148353
100.575234
-95.500334
-197.858974
-287.401830
-309.521741
-391.433056
-519.610038
-341.300029
-62.819869
89.402416
280.579384
438.449083
585.033826
832.072388
591.411089
367.090142
625.133367
23.823162
-322.150186
-166.440221
-409.860543
-201.998768
-17.744687
-49.073466
44.167120
260.521576
399.026154
305.409835
39.598324
-113.246217
-26.859419
-42.264779
-37.382313
-40.142038
107.474254
178.365734
12.967518
163.785224
162.954814
75.997455
-4.361471
-291.161669
-523.518360
-581.587668
-296.872754
-175.743193
-7.441107
245.192655
366.049196
98.787386
469.779917
769.073158
-988.257102
-818.041285
35.760925
-648.605742
157.727543
380.646663
15.577317
481.261695
-38.927081
-569.862308
-452.609045
-782.028250
-679.942215
-453.246550
-419.224833
-298.834840
-675.325522
-534.245318
-145.829971
57.401133
323.608429
364.423667
673.765096
827.323381
541.752678
327.771900
103.713061
-460.922988
-481.644813
93.795511
112.139031
179.315791
829.602525
898.809653
712.194671
937.649672
538.129286
939.347428
273.460843
-1488.019253
-912.667251
-638.835167
-776.821608
-799.578216
-766.566229
-1125.291717
-990.275339
722.838479
693.901668
625.373216
610.435184
-20.533813
474.151357
1258.891469
1566.272149
17.705251
-1392.654064
-868.298932
-717.906991
-265.214001
1134.441101
342.912038
-859.677538
113.223008
621.648226
82.668163
-279.139243
-482.226800
-341.087888
227.159647
383.095873
385.155671
527.991405
766.176465
938.134563
757.737971
287.934564
-541.240716
-963.100077
-1264.713955
-447.641492
357.984957
-531.542053
-481.231160
-61.428249
399.300745
619.080277
86.868018
471.683463
1046.755432
817.125812
-526.439982
-1209.098397
-451.897088
-241.584637
-581.603003
-746.584547
-564.549946
-441.448467
28.981920
694.483160
841.938135
674.085346
330.542412
713.847811
945.138818
1508.220295
1190.014867
-1688.877913
-2049.097861
-707.744639
-333.130645
413.098731
386.685851
113.725713
62.171972
232.944477
676.189869
646.727282
535.796212
463.794367
178.755933
-15.471887
110.174046
-222.718293
-350.907485
-515.637830
-756.533182
459.432138
626.643967
-48.054557
-167.235942
-410.932141
33.327136
105.615662
-128.709571
-314.409121
-513.079538
-217.120452
-272.236168
-169.704366
-59.199944
-76.467079
404.070204
595.391344
696.891597
566.479289
364.341973
393.541827
-84.571641
-294.879522
50.564049
88.910426
-94.936180
-160.480647
-334.024750
-431.076276
-330.653552
-339.719209
-401.222944
-274.144117
-147.818625
-322.731719
-559.146548
-866.212491
-522.770713
32.597395
-231.809537
52.143470
584.752034
726.569207
742.782089
736.914467
858.046105
636.463660
755.136050
657.867355
1199.637510
1357.962326
-1238.653045
-2032.123113
-964.735679
-730.210008
-517.742759
-347.273926
-103.895791
-321.457766
-183.069306
393.298399
492.178345
335.406332
103.694651
103.721745
-35.368461
-18.104028
-24.630168
-427.508869
-341.070896
-85.304561
-148.287429
-227.965237
-230.601831
-362.600039
-421.653617
-468.954134
-384.744733
316.812669
565.539481
521.266331
347.653389
303.337897
276.556143
367.177981
1978.396772
661.113531
-2175.076596
-1952.303727
-892.966065
-462.099263
-244.822621
-230.741157
-317.445240
124.728338
873.706868
519.641924
257.039360
293.276400
82.878898
160.482332
326.425961
457.552794
629.243328
1166.029264
1294.458898
605.062292
1017.273927
812.640995
-970.972856
-1395.856467
-921.013875
-583.360566
-672.860300
-967.651043
-1091.236579
-1305.408288
-1324.741899
-1268.842821
-224.869811
736.502115
373.970208
224.893380
148.532324
-215.013727
-240.286993
410.942189
971.417127
803.241703
612.096582
463.240299
426.416072
430.993568
286.141649
146.627238
-212.522975
-370.846078
-251.247346
-153.218409
-56.316615
-238.783320
-408.549319
-357.975019
-119.992840
-90.438399
-449.499770
-264.543269
7.178438
228.379694
715.679067
711.637892
577.542816
440.957318
203.400538
-300.252799
-629.783705
69.454984
378.067497
160.703207
465.564372
689.538680
450.782020
348.004110
535.534158
593.558940
879.938464
358.532923
-1008.671219
-1190.410565
-737.831355
-469.949318
-468.694029
-675.646193
-723.695368
-642.389943
-151.197389
250.703170
132.565543
110.539410
274.873760
237.043182
23.535447
-232.495960
-333.493662
-157.691738
-102.274793
-110.501652
-10.291160
-74.618861
-169.577935
-4.210997
184.794289
92.612943
119.941929
277.053357
196.238274
125.127702
224.435750
294.028897
287.040105
506.831847
359.143233
-249.643690
-233.854755
-41.809373
-110.238333
27.357827
251.030541
314.589736
348.902135
395.102418
217.472383
150.001977
202.730295
-48.149601
-192.025561
-271.307997
-556.121729
-623.525894
-467.116886
-303.769404
-240.839893
-105.117459
128.278730
294.289640
409.358751
126.831000
-73.912905
53.346462
-21.315434
-42.601741
35.256528
123.770327
170.799018
193.489540
466.078881
535.949982
451.223014
518.549662
580.784546
671.810587
617.677584
789.984035
119.991256
-1151.829269
-927.139033
-428.564577
-266.426068
-58.945896
70.765187
258.687749
162.495804
-36.538811
-216.981903
-332.378430
-454.899946
-574.097957
-569.106387
-688.310892
-625.719083
-170.094323
127.809666
127.760906
170.769127
137.985373
-121.408765
-288.136747
-304.147112
-285.590840
-357.573721
-377.810295
-37.646562
161.673436
144.955974
203.864236
264.406714
413.749962
434.940827
408.067114
491.407322
448.618502
385.408594
178.676716
-170.747166
-202.450274
-108.986805
-162.282048
-270.681654
-231.039281
56.315163
156.876605
64.242218
163.835235
231.709479
99.220824
103.030178
247.233864
179.971274
-38.658359
-149.296668
-136.965019
-155.752852
-188.337882
-95.385641
15.142420
95.443052
146.772765
178.405371
275.682532
244.459740
247.536021
356.282055
186.872981
13.744771
-177.850533
-332.050298
-18.831792
220.439888
151.353189
107.181610
254.123018
369.463590
465.986118
594.400945
47.989624
-481.619734
-385.779883
-298.006170
-160.596525
-31.369655
-190.536753
-476.092130
-610.504127
-552.534676
-207.223069
141.945612
100.566308
-36.065949
120.477101
332.436758
340.486088
387.426457
352.365294
316.688993
-116.720029
-820.691845
-713.544698
-383.673857
-147.870634
-4.828642
-197.939188
-73.037499
286.718914
373.889180
262.352324
163.276406
185.255156
145.259389
-67.098341
-193.185988
-332.264765
-479.099252
-218.652369
16.188404
106.195625
424.474202
483.025019
293.475409
222.378864
33.927305
-43.105258
66.876246
62.840007
239.698418
510.603926
508.879386
251.256365
-18.677706
-16.310599
37.996606
-73.601036
-164.958650
-182.806373
-282.813050
-410.796503
-424.390742
-499.225905
-550.550008
-254.120219
66.304844
167.887963
277.591512
389.581043
463.426115
506.070398
376.439739
43.244508
-97.100910
136.561284
293.148235
342.434073
409.933468
256.255583
-61.468489
-472.038218
-725.954573
-619.345931
-520.235568
-562.996852
-612.234997
-663.525590
-734.574077
-596.299656
-296.698327
-38.305710
317.322168
470.785637
333.948422
230.832551
145.908676
144.760307
314.386445
447.240232
406.072381
366.158183
451.238074
530.558592
572.321732
656.145633
302.409040
-344.086447
-338.541306
56.596645
173.238148
-55.876866
-270.172746
-202.494108
-90.725643
-73.277292
-128.750971
-172.296503
-67.814603
161.887907
233.605977
-26.546171
-367.736363
-455.492257
-641.729532
-648.082145
29.043310
196.499844
86.198457
425.002291
528.424586
481.600749
564.445834
544.744908
-234.748982
-1021.833109
-677.947383
-303.296762
-381.918341
-179.467069
-42.725814
-148.911394
2.013336
114.398238
54.901491
120.593143
57.157754
-134.947480
-170.175936
-146.692594
-145.682529
-141.778878
-49.213696
110.914448
187.749480
286.396413
337.496748
187.667365
69.656506
140.903353
169.867075
86.906547
65.292409
6.885400
-43.623283
-7.305714
23.939054
4.244102
-80.715621
-51.361204
5.670735
14.107902
112.553252
190.493868
120.898019
97.493542
165.177635
31.531442
-60.174265
-10.388628
17.022185
-7.397475
-255.494448
-370.878766
-354.804342
-310.149954
11.397836
107.301591
-29.321574
-41.484476
-90.637937
-101.129215
-62.573463
-27.750874
51.316108
145.819958
271.005577
321.890563
329.638559
398.630077
422.157579
484.555599
689.191543
621.556182
-7.016690
-559.011262
-478.129523
-71.442170
-62.426234
-382.994535
-354.008212
-263.697060
-225.873341
-156.010292
-221.832194
-177.069222
-177.785592
-159.823156
-24.178393
-6.499885
27.417663
30.097014
-4.671388
9.135238
5.299283
52.882065
111.062709
248.362470
330.289007
118.367171
103.572013
189.280290
-10.774964
-90.127279
-25.659406
-27.822958
-24.810581
2.852730
37.379440
-20.173963
-132.215553
-157.229568
-204.400978
-166.613627
-12.547490
50.429559
54.132407
-22.249950
-91.930225
-128.834202
-122.746919
-29.739867
9.202684
